GEISAT PRECURSOR        
1 56934U 23084C   26189.21243382  .00004390  00000+0  13203-3 0  9992
2 56934  97.6245 330.8648 0004101 262.7115  97.3662 15.34942194170759
BLACKJACK ACES-3        
1 56950U 23084U   26188.92652139  .00003458  00000+0  17020-3 0  9996
2 56950  97.6234 324.2799 0000836 313.8515  46.2650 15.18677719170314
BLACKJACK ACES-2        
1 56955U 23084Z   26189.13015066  .00004197  00000+0  20585-3 0  9998
2 56955  97.6230 324.5696 0001114 142.5952 217.5360 15.18675491170356
BLACKJACK ACES-1        
1 56956U 23084AA  26188.92021384  .00004410  00000+0  21583-3 0  9992
2 56956  97.6222 324.1300 0001598 125.3558 234.7826 15.18720881120046
ION SCV-011             
1 56957U 23084AB  26188.55091875  .00003509  00000+0  12753-3 0  9991
2 56957  98.1388  17.7199 0006449 336.4561  23.6380 15.29045823168923
GHOST-3                 
1 56958U 23084AC  26188.97511286  .00011480  00000+0  21679-3 0  9995
2 56958  97.6234 338.6752 0006301 209.9834 150.1056 15.48602815171237
AFR-1                   
1 56964U 23084AJ  26189.17935132  .00002902  00000+0  10666-3 0  9998
2 56964  97.6297 326.3811 0008989 263.5810  96.4405 15.28734829170437
METEOR-M2 3             
1 57166U 23091A   26189.17714683 -.00000020  00000+0  99851-5 0  9992
2 57166  98.6076 243.7248 0005114 105.9710 254.2033 14.24048542157508
UMKA 1 (RS40S)          
1 57172U 23091G   26189.14700376  .00003555  00000+0  16283-3 0  9991
2 57172  97.5038 247.7653 0013665  52.3866 307.8607 15.21068155167190
2023-091H               
1 57173U 23091H   26189.19245486  .00007599  00000+0  27122-3 0  9999
2 57173  97.5036 252.5594 0010270  48.2833 311.9283 15.29112473167517
2023-091J               
1 57174U 23091J   26189.13960557  .00002290  00000+0  12920-3 0  9990
2 57174  97.5043 241.9375 0014748  78.2131 282.0754 15.14079470166808
CUBEBEL 2 (EU11S)       
1 57175U 23091K   26189.18573875  .00008646  00000+0  30262-3 0  9999
2 57175  97.5038 252.5961 0010246  49.5347 310.6784 15.29705212167517
SITRO-AIS 5 (KATYS)     
1 57176U 23091L   26189.13348726  .00007316  00000+0  25450-3 0  9996
2 57176  97.5048 253.2374 0011431  36.7981 323.4042 15.29954358167543
ZORKIY-2M 1             
1 57177U 23091M   26189.19777347  .00004314  00000+0  19618-3 0  9992
2 57177  97.5079 248.0984 0014065  49.3203 310.9252 15.21188736167196
CUBESX-HSE 3 (RS42S)    
1 57178U 23091N   26189.14749352  .00008090  00000+0  26597-3 0  9992
2 57178  97.5080 255.0057 0010437  26.9030 333.2751 15.31763025167638
MONITOR-3 (RS58S)       
1 57180U 23091Q   26189.15344905  .00006031  00000+0  22131-3 0  9994
2 57180  97.5072 252.7577 0011764  33.8688 326.3301 15.28278138167493
MONITOR-4 (RS57S)       
1 57182U 23091S   26189.13134177  .00006416  00000+0  23463-3 0  9998
2 57182  97.5065 252.7078 0011743  34.4015 325.7983 15.28363895167495
MONITOR-2 (RS39S)       
1 57184U 23091U   26189.19487472  .00003285  00000+0  15953-3 0  9991
2 57184  97.5062 247.3430 0012061  46.6270 313.5967 15.19111911167147
SVYATOBOR 1 (RS60S)     
1 57187U 23091X   26189.16286382  .00005264  00000+0  20137-3 0  9997
2 57187  97.5078 253.0993 0009479  28.7667 331.4093 15.26983354167511
HORS 1                  
1 57188U 23091Y   26189.14688328  .00005551  00000+0  21150-3 0  9997
2 57188  97.5055 252.8430 0008954  29.1493 331.0243 15.27098407167519
VIZARD-METEO (RS38S)    
1 57189U 23091Z   26189.18497169  .00010973  00000+0  30796-3 0  9993
2 57189  97.5079 259.0994 0006346   7.6476 352.4863 15.36720161167913
SITRO-AIS 6 (CHIRKIN)   
1 57192U 23091AC  26189.16128775  .00005880  00000+0  22874-3 0  9998
2 57192  97.5056 252.2720 0011892  40.2771 319.9346 15.26347398167489
SITRO-AIS 8 (ANOKHIN)   
1 57193U 23091AD  26189.17860316  .00009016  00000+0  28730-3 0  9996
2 57193  97.5044 254.9584 0010247  32.6266 327.5607 15.32729218167668
SITRO-AIS 7 (FARTUSHNIY)
1 57194U 23091AE  26189.16878740  .00006077  00000+0  23860-3 0  9999
2 57194  97.5052 252.0935 0011850  41.3871 318.8263 15.26025762167473
AVION KALUGA 650        
1 57195U 23091AF  26189.15602848  .00003388  00000+0  15767-3 0  9992
2 57195  97.5077 248.6489 0011101  45.2642 314.9495 15.20583543167210
HORS 2                  
1 57196U 23091AG  26189.19391155  .00008730  00000+0  28098-3 0  9990
2 57196  97.5076 256.5160 0007608  20.6827 339.4721 15.32441655167745
A-SEANSAT-PG1           
1 57197U 23091AH  26189.16559086  .00010942  00000+0  29747-3 0  9997
2 57197  97.5068 259.2038 0006388  16.4564 343.6887 15.37712457167933
SITRO-AIS 10 (BURDAEV)  
1 57199U 23091AK  26189.18539197  .00013381  00000+0  34345-3 0  9992
2 57199  97.5068 260.2399 0005519   9.8877 350.2476 15.39438989167996
SITRO-AIS 9 (SHCHUKIN)  
1 57201U 23091AM  26189.15357725  .00012324  00000+0  32184-3 0  9993
2 57201  97.5067 259.9205 0005809  10.0589 350.0771 15.38926980167972
UTMN 2 (RS27S)          
1 57203U 23091AP  26189.15374949  .00007889  00000+0  25309-3 0  9993
2 57203  97.5075 256.6714 0007500  16.0490 344.0988 15.32583800167752
