OBJECT_NAME,OBJECT_ID,EPOCH,MEAN_MOTION,ECCENTRICITY,INCLINATION,RA_OF_ASC_NODE,ARG_OF_PERICENTER,MEAN_ANOMALY,EPHEMERIS_TYPE,CLASSIFICATION_TYPE,NORAD_CAT_ID,ELEMENT_SET_NO,REV_AT_EPOCH,BSTAR,MEAN_MOTION_DOT,MEAN_MOTION_DDOT
GEISAT PRECURSOR,2023-084C,2026-07-08T05:05:54.282048,15.34942194,.0004101,97.6245,330.8648,262.7115,97.3662,0,U,56934,999,17075,.13203E-3,.439E-4,0
BLACKJACK ACES-3,2023-084U,2026-07-07T22:14:11.448096,15.18677719,.0000836,97.6234,324.2799,313.8515,46.2650,0,U,56950,999,17031,.1702E-3,.3458E-4,0
BLACKJACK ACES-2,2023-084Z,2026-07-08T03:07:25.017024,15.18675491,.0001114,97.6230,324.5696,142.5952,217.5360,0,U,56955,999,17035,.20585E-3,.4197E-4,0
BLACKJACK ACES-1,2023-084AA,2026-07-07T22:05:06.475776,15.18720881,.0001598,97.6222,324.1300,125.3558,234.7826,0,U,56956,999,12004,.21583E-3,.441E-4,0
ION SCV-011,2023-084AB,2026-07-07T13:13:19.380000,15.29045823,.0006449,98.1388,17.7199,336.4561,23.6380,0,U,56957,999,16892,.12753E-3,.3509E-4,0
GHOST-3,2023-084AC,2026-07-07T23:24:09.751104,15.48602815,.0006301,97.6234,338.6752,209.9834,150.1056,0,U,56958,999,17123,.21679E-3,.1148E-3,0
AFR-1,2023-084AJ,2026-07-08T04:18:15.954048,15.28734829,.0008989,97.6297,326.3811,263.5810,96.4405,0,U,56964,999,17043,.10666E-3,.2902E-4,0
METEOR-M2 3,2023-091A,2026-07-08T04:15:05.486112,14.24048542,.0005114,98.6076,243.7248,105.9710,254.2033,0,U,57166,999,15750,.99851E-5,-.2E-6,0
UMKA 1 (RS40S),2023-091G,2026-07-08T03:31:41.124864,15.21068155,.0013665,97.5038,247.7653,52.3866,307.8607,0,U,57172,999,16719,.16283E-3,.3555E-4,0
2023-091H,2023-091H,2026-07-08T04:37:08.099904,15.29112473,.001027,97.5036,252.5594,48.2833,311.9283,0,U,57173,999,16751,.27122E-3,.7599E-4,0
2023-091J,2023-091J,2026-07-08T03:21:01.921248,15.14079470,.0014748,97.5043,241.9375,78.2131,282.0754,0,U,57174,999,16680,.1292E-3,.229E-4,0
CUBEBEL 2 (EU11S),2023-091K,2026-07-08T04:27:27.828000,15.29705212,.0010246,97.5038,252.5961,49.5347,310.6784,0,U,57175,999,16751,.30262E-3,.8646E-4,0
SITRO-AIS 5 (KATYS),2023-091L,2026-07-08T03:12:13.299264,15.29954358,.0011431,97.5048,253.2374,36.7981,323.4042,0,U,57176,999,16754,.2545E-3,.7316E-4,0
ZORKIY-2M 1,2023-091M,2026-07-08T04:44:47.627808,15.21188736,.0014065,97.5079,248.0984,49.3203,310.9252,0,U,57177,999,16719,.19618E-3,.4314E-4,0
CUBESX-HSE 3 (RS42S),2023-091N,2026-07-08T03:32:23.440128,15.31763025,.0010437,97.5080,255.0057,26.9030,333.2751,0,U,57178,999,16763,.26597E-3,.809E-4,0
MONITOR-3 (RS58S),2023-091Q,2026-07-08T03:40:57.997920,15.28278138,.0011764,97.5072,252.7577,33.8688,326.3301,0,U,57180,999,16749,.22131E-3,.6031E-4,0
MONITOR-4 (RS57S),2023-091S,2026-07-08T03:09:07.928928,15.28363895,.0011743,97.5065,252.7078,34.4015,325.7983,0,U,57182,999,16749,.23463E-3,.6416E-4,0
MONITOR-2 (RS39S),2023-091U,2026-07-08T04:40:37.175808,15.19111911,.0012061,97.5062,247.3430,46.6270,313.5967,0,U,57184,999,16714,.15953E-3,.3285E-4,0
SVYATOBOR 1 (RS60S),2023-091X,2026-07-08T03:54:31.434048,15.26983354,.0009479,97.5078,253.0993,28.7667,331.4093,0,U,57187,999,16751,.20137E-3,.5264E-4,0
HORS 1,2023-091Y,2026-07-08T03:31:30.715392,15.27098407,.0008954,97.5055,252.8430,29.1493,331.0243,0,U,57188,999,16751,.2115E-3,.5551E-4,0
VIZARD-METEO (RS38S),2023-091Z,2026-07-08T04:26:21.554016,15.36720161,.0006346,97.5079,259.0994,7.6476,352.4863,0,U,57189,999,16791,.30796E-3,.10973E-3,0
SITRO-AIS 6 (CHIRKIN),2023-091AC,2026-07-08T03:52:15.261600,15.26347398,.0011892,97.5056,252.2720,40.2771,319.9346,0,U,57192,999,16748,.22874E-3,.588E-4,0
SITRO-AIS 8 (ANOKHIN),2023-091AD,2026-07-08T04:17:11.313024,15.32729218,.0010247,97.5044,254.9584,32.6266,327.5607,0,U,57193,999,16766,.2873E-3,.9016E-4,0
SITRO-AIS 7 (FARTUSHNIY),2023-091AE,2026-07-08T04:03:03.231360,15.26025762,.001185,97.5052,252.0935,41.3871,318.8263,0,U,57194,999,16747,.2386E-3,.6077E-4,0
AVION KALUGA 650,2023-091AF,2026-07-08T03:44:40.860672,15.20583543,.0011101,97.5077,248.6489,45.2642,314.9495,0,U,57195,999,16721,.15767E-3,.3388E-4,0
HORS 2,2023-091AG,2026-07-08T04:39:13.957920,15.32441655,.0007608,97.5076,256.5160,20.6827,339.4721,0,U,57196,999,16774,.28098E-3,.873E-4,0
A-SEANSAT-PG1,2023-091AH,2026-07-08T03:58:27.050304,15.37712457,.0006388,97.5068,259.2038,16.4564,343.6887,0,U,57197,999,16793,.29747E-3,.10942E-3,0
SITRO-AIS 10 (BURDAEV),2023-091AK,2026-07-08T04:26:57.866208,15.39438989,.0005519,97.5068,260.2399,9.8877,350.2476,0,U,57199,999,16799,.34345E-3,.13381E-3,0
SITRO-AIS 9 (SHCHUKIN),2023-091AM,2026-07-08T03:41:09.074400,15.38926980,.0005809,97.5067,259.9205,10.0589,350.0771,0,U,57201,999,16797,.32184E-3,.12324E-3,0
UTMN 2 (RS27S),2023-091AP,2026-07-08T03:41:23.955936,15.32583800,.00075,97.5075,256.6714,16.0490,344.0988,0,U,57203,999,16775,.25309E-3,.7889E-4,0
